OBJECT_NAME,OBJECT_ID,EPOCH,MEAN_MOTION,ECCENTRICITY,INCLINATION,RA_OF_ASC_NODE,ARG_OF_PERICENTER,MEAN_ANOMALY,EPHEMERIS_TYPE,CLASSIFICATION_TYPE,NORAD_CAT_ID,ELEMENT_SET_NO,REV_AT_EPOCH,BSTAR,MEAN_MOTION_DOT,MEAN_MOTION_DDOT
COSMO-SKYMED 1,2007-023A,2026-07-07T04:27:06.792192,14.97196472,.0001004,97.8850,20.2106,88.3982,271.7354,0,U,31598,999,3278,.15129E-3,.1689E-4,0
COSMOS 2428,2007-029A,2026-07-06T16:24:03.174048,14.12930331,.0007163,70.9381,313.5420,97.6151,262.5784,0,U,31792,999,98090,.10524E-3,.148E-5,0
SL-16 R/B,2007-029B,2026-07-07T04:17:55.514400,14.14851127,.0002215,70.9757,281.2036,258.8640,116.1560,0,U,31793,999,98227,-.73293E-4,-.189E-5,0
KORONAS-FOTON,2009-003A,2026-07-06T22:48:10.247904,15.46155565,.0012558,82.4299,151.6370,87.3281,272.9405,0,U,33504,999,96415,.15864E-3,.7839E-4,0
CZ-2C R/B,2011-030B,2026-07-06T21:34:04.872864,14.81520205,.005133,97.8664,142.9305,323.7994,101.4083,0,U,37731,999,80774,.13942E-3,.1063E-4,0
H-2A R/B,2012-025E,2026-07-07T00:36:00.208224,14.95819690,.0042106,98.4843,164.8080,282.6520,76.9993,0,U,38341,999,76605,.23138E-3,.2558E-4,0
SHIJIAN-16 (SJ-16),2013-057A,2026-07-07T05:07:07.240800,14.92659858,.0016108,74.9741,318.7524,184.0333,176.0728,0,U,39358,999,68933,.2434E-3,.2486E-4,0
SL-4 R/B,2014-021B,2026-07-06T22:59:24.771840,15.42363366,.0090156,51.6056,113.8867,178.1919,181.9409,0,U,39679,999,67466,.15494E-3,.7407E-4,0
ALOS-2,2014-029A,2026-07-07T05:25:37.722720,14.79470589,.0001579,97.9223,285.1034,92.8917,267.2475,0,U,39766,999,65454,.2054E-3,.1483E-4,0
YAOGAN-29,2015-069A,2026-07-07T05:10:38.551872,14.83101057,.0001374,98.0019,216.8793,21.9128,338.2144,0,U,41038,999,57359,.1056E-4,.32E-6,0
ASTRO-H (HITOMI),2016-012A,2026-07-06T09:29:14.796096,15.10606646,.00095437,31.0000,310.1299,86.2299,273.9431,0,U,41337,999,57019,.1747209E-3,.3056E-4,0
HXMT (HUIYAN),2017-034A,2026-07-07T03:07:21.518688,15.18637967,.0032757,43.0142,71.9811,271.6353,88.0744,0,U,42758,999,50069,.15912E-3,.3156E-4,0
SAOCOM 1A,2018-076A,2026-07-07T04:28:46.989408,14.82161994,.0001508,97.8889,14.6441,80.2194,279.9190,0,U,43641,999,41906,-.19446E-4,-.207E-5,0
H-2A R/B,2018-084L,2026-07-06T17:53:27.972096,15.45963852,.0021027,98.8544,70.9182,331.7008,28.3092,0,U,43682,999,42414,.34746E-3,.16966E-3,0
SAOCOM 1B,2020-059A,2026-07-07T03:36:32.980608,14.82156084,.0001596,97.8894,13.7041,81.0002,279.1391,0,U,46265,999,31644,.10881E-3,.814E-5,0
CSS (TIANHE),2021-035A,2026-07-07T01:46:56.140032,15.58021672,.0002919,41.4675,201.0524,274.9439,85.1065,0,U,48274,999,29627,.13289E-3,.9938E-4,0
COSMOS 2550,2021-056A,2026-07-07T04:09:38.149344,15.33771586,.0008405,67.1431,39.4491,271.7983,88.2209,0,U,48865,999,28178,.32836E-4,.887E-5,0
CZ-2C R/B,2022-058K,2026-07-06T22:31:36.400800,15.63350675,.0030987,50.1851,60.6377,348.4599,11.5661,0,U,52794,999,22873,.34776E-3,.33068E-3,0
CZ-2C R/B,2022-132E,2026-07-07T00:05:36.503808,15.74131032,.00112,97.2901,195.9465,16.5750,343.5878,0,U,54039,999,20906,.38503E-3,.55302E-3,0
GSLV R/B,2022-138AN,2026-07-06T21:36:04.554144,14.97355224,.0024155,87.3813,126.3644,79.2550,281.1399,0,U,54149,999,20176,.24206E-3,.2855E-4,0
XRISM,2023-137A,2026-07-06T12:37:36.395616,15.12631514,.0007794,31.0012,234.3179,159.2962,200.7994,0,U,57800,999,15579,.18768E-3,.3461E-4,0
ACS3,2024-077B,2026-07-06T17:18:04.148640,13.95236626,.0113209,97.1718,102.1729,46.1559,314.8897,0,U,59588,999,11076,.26167E-1,.37453E-3,0
SPACEMOBILE-003,2024-163A,2026-06-26T19:29:47.816736,15.20822722,.0005991,52.9744,265.1828,141.0621,219.0806,0,U,61045,999,9923,.90246E-4,.1689E-4,0
SPACEMOBILE-005,2024-163B,2026-07-06T07:47:25.125504,15.20800178,.00092973,52.9788,221.3760,169.9979,190.1202,0,U,61046,999,10067,-.17864937E-3,-.4321E-4,0
SPACEMOBILE-001,2024-163C,2026-07-06T14:03:53.754048,15.20820517,.0007438,52.9741,219.8899,169.1843,190.9313,0,U,61047,999,10071,.99523E-4,.1897E-4,0
SPACEMOBILE-002,2024-163D,2026-07-06T13:40:56.380800,15.20857755,.0006454,52.9753,220.0040,165.9423,194.1752,0,U,61048,999,10071,.20708E-3,.4308E-4,0
SPACEMOBILE-004,2024-163E,2026-07-06T11:41:01.712832,15.20801145,.0007073,52.9667,220.1743,196.8401,163.2360,0,U,61049,999,10070,.51661E-3,.11231E-3,0
CZ-8A R/B,2025-231K,2026-07-06T14:48:16.868160,14.30160465,.0116517,50.0052,316.6543,292.4061,66.4545,0,U,66004,999,3772,.63952E-4,.16E-6,0
SZ-21 MODULE,2025-246C,2026-07-07T00:49:18.082848,15.78192992,.0006295,41.4706,183.5562,162.6981,197.4080,0,U,66515,999,3687,.21756E-3,.38272E-3,0
SPACEMOBILE-006,2025-309A,2026-07-07T04:21:59.298912,15.18643108,.0010676,52.9952,240.0450,189.1004,170.9798,0,U,67232,999,2963,.47122E-4,.667E-5,0
