COSMO-SKYMED 1          
1 31598U 07023A   26188.18549528  .00001689  00000+0  15129-3 0  9999
2 31598  97.8850  20.2106 0001004  88.3982 271.7354 14.97196472 32788
COSMOS 2428             
1 31792U 07029A   26187.68337007  .00000148  00000+0  10524-3 0  9995
2 31792  70.9381 313.5420 0007163  97.6151 262.5784 14.12930331980903
SL-16 R/B               
1 31793U 07029B   26188.17911475 -.00000189  00000+0 -73293-4 0  9998
2 31793  70.9757 281.2036 0002215 258.8640 116.1560 14.14851127982277
KORONAS-FOTON           
1 33504U 09003A   26187.95011861  .00007839  00000+0  15864-3 0  9995
2 33504  82.4299 151.6370 0012558  87.3281 272.9405 15.46155565964151
CZ-2C R/B               
1 37731U 11030B   26187.89866751  .00001063  00000+0  13942-3 0  9991
2 37731  97.8664 142.9305 0051330 323.7994 101.4083 14.81520205807747
H-2A R/B                
1 38341U 12025E   26188.02500241  .00002558  00000+0  23138-3 0  9997
2 38341  98.4843 164.8080 0042106 282.6520  76.9993 14.95819690766051
SHIJIAN-16 (SJ-16)      
1 39358U 13057A   26188.21327825  .00002486  00000+0  24340-3 0  9994
2 39358  74.9741 318.7524 0016108 184.0333 176.0728 14.92659858689337
SL-4 R/B                
1 39679U 14021B   26187.95792560  .00007407  00000+0  15494-3 0  9992
2 39679  51.6056 113.8867 0090156 178.1919 181.9409 15.42363366674660
ALOS-2                  
1 39766U 14029A   26188.22613105  .00001483  00000+0  20540-3 0  9991
2 39766  97.9223 285.1034 0001579  92.8917 267.2475 14.79470589654547
YAOGAN-29               
1 41038U 15069A   26188.21572398  .00000032  00000+0  10560-4 0  9999
2 41038  98.0019 216.8793 0001374  21.9128 338.2144 14.83101057573593
ASTRO-H (HITOMI)        
1 41337U 16012A   26187.39531014  .00003056  00000+0  17472-3 0  9995
2 41337  31.0000 310.1299 0009543  86.2299 273.9431 15.10606646570192
HXMT (HUIYAN)           
1 42758U 17034A   26188.13011017  .00003156  00000+0  15912-3 0  9995
2 42758  43.0142  71.9811 0032757 271.6353  88.0744 15.18637967500694
SAOCOM 1A               
1 43641U 18076A   26188.18665497 -.00000207  00000+0 -19446-4 0  9999
2 43641  97.8889  14.6441 0001508  80.2194 279.9190 14.82161994419069
H-2A R/B                
1 43682U 18084L   26187.74546264  .00016966  00000+0  34746-3 0  9990
2 43682  98.8544  70.9182 0021027 331.7008  28.3092 15.45963852424141
SAOCOM 1B               
1 46265U 20059A   26188.15038172  .00000814  00000+0  10881-3 0  9994
2 46265  97.8894  13.7041 0001596  81.0002 279.1391 14.82156084316447
CSS (TIANHE)            
1 48274U 21035A   26188.07426088  .00009938  00000+0  13289-3 0  9990
2 48274  41.4675 201.0524 0002919 274.9439  85.1065 15.58021672296275
COSMOS 2550             
1 48865U 21056A   26188.17335821  .00000887  00000+0  32836-4 0  9998
2 48865  67.1431  39.4491 0008405 271.7983  88.2209 15.33771586281780
CZ-2C R/B               
1 52794U 22058K   26187.93861575  .00033068  00000+0  34776-3 0  9991
2 52794  50.1851  60.6377 0030987 348.4599  11.5661 15.63350675228730
CZ-2C R/B               
1 54039U 22132E   26188.00389472  .00055302  00000+0  38503-3 0  9995
2 54039  97.2901 195.9465 0011200  16.5750 343.5878 15.74131032209060
GSLV R/B                
1 54149U 22138AN  26187.90005271  .00002855  00000+0  24206-3 0  9993
2 54149  87.3813 126.3644 0024155  79.2550 281.1399 14.97355224201767
XRISM                   
1 57800U 23137A   26187.52611569  .00003461  00000+0  18768-3 0  9991
2 57800  31.0012 234.3179 0007794 159.2962 200.7994 15.12631514155796
ACS3                    
1 59588U 24077B   26187.72088135  .00037453  00000+0  26167-1 0  9997
2 59588  97.1718 102.1729 0113209  46.1559 314.8897 13.95236626110766
SPACEMOBILE-003         
1 61045U 24163A   26177.81235899  .00001689  00000+0  90246-4 0  9998
2 61045  52.9744 265.1828 0005991 141.0621 219.0806 15.20822722 99230
SPACEMOBILE-005         
1 61046U 24163B   26187.32459636 -.00004321  00000+0 -17865-3 0  9996
2 61046  52.9788 221.3760 0009297 169.9979 190.1202 15.20800178100677
SPACEMOBILE-001         
1 61047U 24163C   26187.58603882  .00001897  00000+0  99523-4 0  9994
2 61047  52.9741 219.8899 0007438 169.1843 190.9313 15.20820517100714
SPACEMOBILE-002         
1 61048U 24163D   26187.57009700  .00004308  00000+0  20708-3 0  9991
2 61048  52.9753 220.0040 0006454 165.9423 194.1752 15.20857755100712
SPACEMOBILE-004         
1 61049U 24163E   26187.48682538  .00011231  00000+0  51661-3 0  9993
2 61049  52.9667 220.1743 0007073 196.8401 163.2360 15.20801145100708
CZ-8A R/B               
1 66004U 25231K   26187.61686190  .00000016  00000+0  63952-4 0  9995
2 66004  50.0052 316.6543 0116517 292.4061  66.4545 14.30160465 37722
SZ-21 MODULE            
1 66515U 25246C   26188.03423707  .00038272  00000+0  21756-3 0  9998
2 66515  41.4706 183.5562 0006295 162.6981 197.4080 15.78192992 36878
SPACEMOBILE-006         
1 67232U 25309A   26188.18193633  .00000667  00000+0  47122-4 0  9996
2 67232  52.9952 240.0450 0010676 189.1004 170.9798 15.18643108 29630
